{
    "links": {
        "self": "http://www.neowsapp.com/rest/v1/neo/3838195?api_key=iIulBulltgU6a56xZRHN4H3l9WmuAYTsLGpBGhQ2"
    },
    "id": "3838195",
    "neo_reference_id": "3838195",
    "name": "(2019 CW2)",
    "designation": "2019 CW2",
    "nasa_jpl_url": "http://ssd.jpl.nasa.gov/sbdb.cgi?sstr=3838195",
    "absolute_magnitude_h": 20.7,
    "estimated_diameter": {
        "kilometers": {
            "estimated_diameter_min": 0.1925550782,
            "estimated_diameter_max": 0.4305662442
        },
        "meters": {
            "estimated_diameter_min": 192.5550781879,
            "estimated_diameter_max": 430.566244241
        },
        "miles": {
            "estimated_diameter_min": 0.1196481415,
            "estimated_diameter_max": 0.2675413778
        },
        "feet": {
            "estimated_diameter_min": 631.7424027221,
            "estimated_diameter_max": 1412.6189567557
        }
    },
    "is_potentially_hazardous_asteroid": false,
    "close_approach_data": [
        {
            "close_approach_date": "1999-05-19",
            "close_approach_date_full": "1999-May-19 00:46",
            "epoch_date_close_approach": 927074760000,
            "relative_velocity": {
                "kilometers_per_second": "5.6714040304",
                "kilometers_per_hour": "20417.0545095787",
                "miles_per_hour": "12686.3636756879"
            },
            "miss_distance": {
                "astronomical": "1.5799838034",
                "lunar": "614.6136995226",
                "kilometers": "236362211.623138758",
                "miles": "146868667.9119925404"
            },
            "orbiting_body": "Juptr"
        },
        {
            "close_approach_date": "2019-03-20",
            "close_approach_date_full": "2019-Mar-20 00:16",
            "epoch_date_close_approach": 1553040960000,
            "relative_velocity": {
                "kilometers_per_second": "19.4815047368",
                "kilometers_per_hour": "70133.41705252",
                "miles_per_hour": "43578.1779457727"
            },
            "miss_distance": {
                "astronomical": "0.4831923246",
                "lunar": "187.9618142694",
                "kilometers": "72284542.560508602",
                "miles": "44915531.9862066276"
            },
            "orbiting_body": "Earth"
        },
        {
            "close_approach_date": "2046-08-08",
            "close_approach_date_full": "2046-Aug-08 16:03",
            "epoch_date_close_approach": 2417356980000,
            "relative_velocity": {
                "kilometers_per_second": "5.0572690498",
                "kilometers_per_hour": "18206.1685793061",
                "miles_per_hour": "11312.6051375138"
            },
            "miss_distance": {
                "astronomical": "1.8695572566",
                "lunar": "727.2577728174",
                "kilometers": "279681783.430403442",
                "miles": "173786201.6504018196"
            },
            "orbiting_body": "Juptr"
        },
        {
            "close_approach_date": "2049-03-24",
            "close_approach_date_full": "2049-Mar-24 02:25",
            "epoch_date_close_approach": 2500165500000,
            "relative_velocity": {
                "kilometers_per_second": "15.0044470865",
                "kilometers_per_hour": "54016.0095114824",
                "miles_per_hour": "33563.4476878431"
            },
            "miss_distance": {
                "astronomical": "0.2999033776",
                "lunar": "116.6624138864",
                "kilometers": "44864906.494765712",
                "miles": "27877760.1869303456"
            },
            "orbiting_body": "Earth"
        },
        {
            "close_approach_date": "2079-03-22",
            "close_approach_date_full": "2079-Mar-22 23:03",
            "epoch_date_close_approach": 3446751780000,
            "relative_velocity": {
                "kilometers_per_second": "16.9911212792",
                "kilometers_per_hour": "61168.0366049684",
                "miles_per_hour": "38007.4391893483"
            },
            "miss_distance": {
                "astronomical": "0.3919720934",
                "lunar": "152.4771443326",
                "kilometers": "58638190.272081058",
                "miles": "36436081.8715042804"
            },
            "orbiting_body": "Earth"
        }
    ],
    "orbital_data": {
        "orbit_id": "4",
        "orbit_determination_date": "2019-05-12 07:59:27",
        "first_observation_date": "2019-02-04",
        "last_observation_date": "2019-05-02",
        "data_arc_in_days": 87,
        "observations_used": 24,
        "orbit_uncertainty": "6",
        "minimum_orbit_intersection": ".290406",
        "jupiter_tisserand_invariant": "3.071",
        "epoch_osculation": "2459000.5",
        "eccentricity": ".5599611965522461",
        "semi_major_axis": "2.641029649603412",
        "inclination": "21.11339877595042",
        "ascending_node_longitude": "342.4758502509454",
        "orbital_period": "1567.683336740158",
        "perihelion_distance": "1.162155526881526",
        "perihelion_argument": "238.0929438215747",
        "aphelion_distance": "4.119903772325297",
        "perihelion_time": "2458583.079912940322",
        "mean_anomaly": "95.85560286298522",
        "mean_motion": ".2296382130007099",
        "equinox": "J2000",
        "orbit_class": {
            "orbit_class_type": "AMO",
            "orbit_class_description": "Near-Earth asteroid orbits similar to that of 1221 Amor",
            "orbit_class_range": "1.017 AU < q (perihelion) < 1.3 AU"
        }
    },
    "is_sentry_object": false
}